GLOBALSTAR M094         
1 39074U 13005C   23338.47466921 -.00000092  00000+0  67970-4 0  9994
2 39074  51.9958  89.3186 0001000 119.0493 241.0474 12.62270108501563
GLOBALSTAR M096         
1 39075U 13005D   23338.48796244 -.00000091  00000+0  69218-4 0  9996
2 39075  52.0048 137.3565 0001368 103.7795 256.3224 12.62266790500487
GLOBALSTAR M078         
1 39076U 13005E   23339.09489074 -.00000158  00000+0 -30508-3 0  9999
2 39076  51.9868 220.7813 0001649  45.8251 314.2751 12.62264112499396
GLOBALSTAR M095         
1 39077U 13005F   23338.88375183 -.00000085  00000+0  10355-3 0  9997
2 39077  51.9787 218.9002 0001659  66.2820 293.8220 12.62271586499011
GLOBALSTAR M087         
1 52888U 22064A   23338.70750038 -.00000099  00000+0  56090-4 0  9996
2 52888  51.9737 170.0014 0008721 224.1917 135.8287 13.37559735 71361
